NORAD_CAT_ID,OBJECT_NAME,OBJECT_TYPE,EPOCH,MEAN_MOTION,ECCENTRICITY,INCLINATION,RA_OF_ASC_NODE,ARG_OF_PERICENTER,MEAN_ANOMALY,BSTAR,MEAN_MOTION_DOT,MEAN_MOTION_DDOT,TLE_LINE0,TLE_LINE1,TLE_LINE2,SEMIMAJOR_AXIS,PERIOD,APOGEE,PERIGEE,DECAYED
55304.0,STARLINK-5318,PAYLOAD,2024-02-15 12:02:43,14.98321888,0.0002501,70.0012,123.3244,252.256,107.8326,1.9586e-05,1.41e-06,0.0,0 STARLINK-5318,1 55304U 23010AM  24046.50188839  .00000141  00000-0  19586-4 0  9990,2 55304  70.0012 123.3244 0002501 252.2560 107.8326 14.98321888 60148,6950.218,96.108,573.821,570.345,0.0
55304.0,STARLINK-5318,PAYLOAD,2024-02-15 13:38:51,14.98322201,0.0002644,70.0007,123.1542,265.204,94.8818,7.1242e-06,-8e-08,0.0,0 STARLINK-5318,1 55304U 23010AM  24046.56864912 -.00000008  00000-0  71242-5 0  9990,2 55304  70.0007 123.1542 0002644 265.2040  94.8818 14.98322201 60462,6950.217,96.107,573.92,570.244,0.0
55304.0,STARLINK-5318,PAYLOAD,2024-02-15 21:39:31,14.98325893,0.0002601,70.0008,122.3143,270.8852,89.2009,-4.8381e-07,-9.9e-07,0.0,0 STARLINK-5318,1 55304U 23010AM  24046.90244863 -.00000099  00000-0 -48381-6 0  9995,2 55304  70.0008 122.3143 0002601 270.8852  89.2009 14.98325893 60513,6950.206,96.107,573.878,570.263,0.0
55304.0,STARLINK-5318,PAYLOAD,2024-02-16 12:04:44,14.98328814,0.0002729,70.0001,120.7986,267.8991,92.1855,-6.5941e-05,-8.8e-06,0.0,0 STARLINK-5318,1 55304U 23010AM  24047.50328902 -.00000880  00000-0 -65941-4 0  9996,2 55304  70.0001 120.7986 0002729 267.8991  92.1855 14.98328814 60297,6950.197,96.107,573.958,570.165,0.0
55304.0,STARLINK-5318,PAYLOAD,2024-02-16 13:40:52,14.9832886,0.0002692,70.0002,120.6299,268.3722,91.7128,-4.2196e-05,-5.96e-06,0.0,0 STARLINK-5318,1 55304U 23010AM  24047.57004840 -.00000596  00000-0 -42196-4 0  9996,2 55304  70.0002 120.6299 0002692 268.3722  91.7128 14.98328860 60616,6950.196,96.107,573.932,570.19,0.0
55304.0,STARLINK-5318,PAYLOAD,2024-02-16 15:16:59,14.98376691,0.0002504,70.0003,120.4619,258.4953,101.5925,-0.0008334,-0.00010034,0.0,0 STARLINK-5318,1 55304U 23010AM  24047.63679562 -.00010034  00000-0 -83340-3 0  9995,2 55304  70.0003 120.4619 0002504 258.4953 101.5925 14.98376691 60316,6950.049,96.104,573.654,570.173,0.0
55304.0,STARLINK-5318,PAYLOAD,2024-02-17 12:06:44,14.983313,0.0002839,69.9999,118.2726,268.2422,91.8412,0.00012041,1.344e-05,0.0,0 STARLINK-5318,1 55304U 23010AM  24048.50468121  .00001344  00000-0  12041-3 0  9991,2 55304  69.9999 118.2726 0002839 268.2422  91.8412 14.98331300 60446,6950.189,96.107,574.027,570.081,0.0
55304.0,STARLINK-5318,PAYLOAD,2024-02-17 13:42:52,14.98332298,0.0002818,70.0,118.1042,268.5295,91.5541,0.00013136,1.475e-05,0.0,0 STARLINK-5318,1 55304U 23010AM  24048.57144020  .00001475  00000-0  13136-3 0  9998,2 55304  70.0000 118.1042 0002818 268.5295  91.5541 14.98332298 60762,6950.186,96.107,574.009,570.092,0.0
55304.0,STARLINK-5318,PAYLOAD,2024-02-17 21:43:32,14.98361604,0.0003051,70.0007,117.2607,274.3748,85.7062,-0.0004345,-5.278e-05,0.0,0 STARLINK-5318,1 55304U 23010AM  24048.90523291 -.00005278  00000-0 -43450-3 0  9995,2 55304  70.0007 117.2607 0003051 274.3748  85.7062 14.98361604 60816,6950.095,96.105,574.081,569.84,0.0
55304.0,STARLINK-5318,PAYLOAD,2024-02-18 04:08:05,14.98322996,0.0002921,69.9999,116.5892,266.7465,93.3359,-1.8022e-05,-3.08e-06,0.0,0 STARLINK-5318,1 55304U 23010AM  24049.17228846 -.00000308  00000-0 -18022-4 0  9990,2 55304  69.9999 116.5892 0002921 266.7465  93.3359 14.98322996 60542,6950.215,96.107,574.11,570.049,0.0
55304.0,STARLINK-5318,PAYLOAD,2024-02-18 13:44:53,14.98330867,0.0002833,69.9995,115.5792,267.6287,92.4548,3.0105e-05,2.66e-06,0.0,0 STARLINK-5318,1 55304U 23010AM  24049.57284260  .00000266  00000-0  30105-4 0  9993,2 55304  69.9995 115.5792 0002833 267.6287  92.4548 14.98330867 60917,6950.19,96.107,574.024,570.086,0.0
55304.0,STARLINK-5318,PAYLOAD,2024-02-18 21:45:34,14.98331569,0.0002688,69.9997,114.7364,271.2767,88.8084,-3.1974e-05,-4.74e-06,0.0,0 STARLINK-5318,1 55304U 23010AM  24049.90664402 -.00000474  00000-0 -31974-4 0  9998,2 55304  69.9997 114.7364 0002688 271.2767  88.8084 14.98331569 60966,6950.188,96.107,573.921,570.185,0.0
55304.0,STARLINK-5318,PAYLOAD,2024-02-19 13:46:54,14.98330587,0.0002849,69.9994,113.0529,268.0657,92.0176,-7.4011e-05,-9.76e-06,0.0,0 STARLINK-5318,1 55304U 23010AM  24050.57424481 -.00000976  00000-0 -74011-4 0  9990,2 55304  69.9994 113.0529 0002849 268.0657  92.0176 14.98330587 61069,6950.191,96.107,574.036,570.076,0.0
55304.0,STARLINK-5318,PAYLOAD,2024-02-19 21:47:34,14.98334201,0.0003004,69.9993,112.2115,269.8009,90.2806,-9.0788e-05,-1.176e-05,0.0,0 STARLINK-5318,1 55304U 23010AM  24050.90804215 -.00001176  00000-0 -90788-4 0  9996,2 55304  69.9993 112.2115 0003004 269.8009  90.2806 14.98334201 61117,6950.18,96.107,574.133,569.957,0.0
55304.0,STARLINK-5318,PAYLOAD,2024-02-20 13:48:55,14.98331035,0.0002943,69.9992,110.5288,268.5078,91.5744,3.3276e-05,3.04e-06,0.0,0 STARLINK-5318,1 55304U 23010AM  24051.57564167  .00000304  00000-0  33276-4 0  9998,2 55304  69.9992 110.5288 0002943 268.5078  91.5744 14.98331035 61219,6950.19,96.107,574.1,570.009,0.0
55304.0,STARLINK-5318,PAYLOAD,2024-02-21 13:50:56,14.9831603,0.0002568,69.9995,108.0039,264.3957,95.6909,0.00036076,4.213e-05,0.0,0 STARLINK-5318,1 55304U 23010AM  24052.57704267  .00004213  00000-0  36076-3 0  9999,2 55304  69.9995 108.0039 0002568 264.3957  95.6909 14.98316030 61363,6950.236,96.108,573.886,570.316,0.0
55304.0,STARLINK-5318,PAYLOAD,2024-02-21 20:15:28,14.9835196,0.000286,69.9996,107.3305,272.9697,87.1134,-0.000366,-4.46e-05,0.0,0 STARLINK-5318,1 55304U 23010AM  24052.84407635 -.00004460  00000-0 -36600-3 0  9997,2 55304  69.9996 107.3305 0002860 272.9697  87.1134 14.98351960 61405,6950.125,96.106,573.978,570.002,0.0
55304.0,STARLINK-5318,PAYLOAD,2024-02-22 13:52:57,14.98327945,0.0002383,69.9997,105.4793,267.1563,92.9323,3.3707e-05,3.09e-06,0.0,0 STARLINK-5318,1 55304U 23010AM  24053.57844322  .00000309  00000-0  33707-4 0  9998,2 55304  69.9997 105.4793 0002383 267.1563  92.9323 14.98327945 61516,6950.199,96.107,573.72,570.408,0.0
55304.0,STARLINK-5318,PAYLOAD,2024-02-22 20:17:29,14.98333589,0.0002767,69.9997,104.8062,271.3807,88.7035,-7.1901e-05,-9.51e-06,0.0,0 STARLINK-5318,1 55304U 23010AM  24053.84548165 -.00000951  00000-0 -71901-4 0  9997,2 55304  69.9997 104.8062 0002767 271.3807  88.7035 14.98333589 61550,6950.182,96.107,573.97,570.124,0.0
55304.0,STARLINK-5318,PAYLOAD,2024-02-23 12:18:50,14.98332268,0.0002717,69.9994,103.1229,269.256,90.8288,-2.7422e-05,-4.2e-06,0.0,0 STARLINK-5318,1 55304U 23010AM  24054.51308063 -.00000420  00000-0 -27422-4 0  9993,2 55304  69.9994 103.1229 0002717 269.2560  90.8288 14.98332268 61659,6950.186,96.107,573.939,570.163,0.0
55304.0,STARLINK-5318,PAYLOAD,2024-02-23 20:19:30,14.98340905,0.0002863,69.9993,102.281,272.0493,88.0338,-0.00017342,-2.162e-05,0.0,0 STARLINK-5318,1 55304U 23010AM  24054.84687757 -.00002162  00000-0 -17342-3 0  9993,2 55304  69.9993 102.2810 0002863 272.0493  88.0338 14.98340905 61396,6950.159,96.106,574.014,570.034,0.0
55304.0,STARLINK-5318,PAYLOAD,2024-02-24 04:20:10,14.98329086,0.0002791,69.9992,101.4395,270.9784,89.1056,1.2199e-05,5.3e-07,0.0,0 STARLINK-5318,1 55304U 23010AM  24055.18068101  .00000053  00000-0  12199-4 0  9998,2 55304  69.9992 101.4395 0002791 270.9784  89.1056 14.98329086 61446,6950.196,96.107,574.001,570.121,0.0
55304.0,STARLINK-5318,PAYLOAD,2024-02-24 10:44:41,14.98344988,0.0002782,69.9993,100.7659,270.4454,89.6386,0.0001725,1.967e-05,0.0,0 STARLINK-5318,1 55304U 23010AM  24055.44770594  .00001967  00000-0  17250-3 0  9990,2 55304  69.9993 100.7659 0002782 270.4454  89.6386 14.98344988 61484,6950.147,96.106,573.945,570.078,0.0
55304.0,STARLINK-5318,PAYLOAD,2024-02-24 12:20:48,14.98356114,0.0002918,69.9991,100.5977,269.9882,90.0943,0.00029164,3.391e-05,0.0,0 STARLINK-5318,1 55304U 23010AM  24055.51445507  .00003391  00000-0  29164-3 0  9991,2 55304  69.9991 100.5977 0002918 269.9882  90.0943 14.98356114 61807,6950.112,96.105,574.005,569.949,0.0
55304.0,STARLINK-5318,PAYLOAD,2024-02-24 20:21:30,14.98342634,0.000265,69.9991,99.7546,279.9781,80.1079,0.00011046,1.226e-05,0.0,0 STARLINK-5318,1 55304U 23010AM  24055.84826645  .00001226  00000-0  11046-3 0  9998,2 55304  69.9991  99.7546 0002650 279.9781  80.1079 14.98342634 61857,6950.154,96.106,573.861,570.177,0.0
55304.0,STARLINK-5318,PAYLOAD,2024-02-25 05:58:20,14.98321627,0.0003072,69.999,98.746,274.1503,85.9305,-9.5565e-05,-1.233e-05,0.0,0 STARLINK-5318,1 55304U 23010AM  24056.24884285 -.00001233  00000-0 -95565-4 0  9996,2 55304  69.9990  98.7460 0003072 274.1503  85.9305 14.98321627 61605,6950.219,96.108,574.219,569.949,0.0
55304.0,STARLINK-5318,PAYLOAD,2024-02-25 12:22:52,14.9832507,0.0003054,69.999,98.0724,274.0703,86.0107,-6.5953e-05,-8.8e-06,0.0,0 STARLINK-5318,1 55304U 23010AM  24056.51588049 -.00000880  00000-0 -65953-4 0  9990,2 55304  69.9990  98.0724 0003054 274.0703  86.0107 14.98325070 61958,6950.208,96.107,574.196,569.951,0.0
55304.0,STARLINK-5318,PAYLOAD,2024-02-25 20:23:32,14.98328431,0.0003086,69.9989,97.2306,274.1669,85.9138,-4.5458e-05,-6.35e-06,0.0,0 STARLINK-5318,1 55304U 23010AM  24056.84967805 -.00000635  00000-0 -45458-4 0  9993,2 55304  69.9989  97.2306 0003086 274.1669  85.9138 14.98328431 61697,6950.198,96.107,574.208,569.918,0.0
55304.0,STARLINK-5318,PAYLOAD,2024-02-26 12:24:52,14.98333033,0.0002993,69.9989,95.5467,271.6174,88.4642,5.8313e-05,6.03e-06,0.0,0 STARLINK-5318,1 55304U 23010AM  24057.51727157  .00000603  00000-0  58313-4 0  9999,2 55304  69.9989  95.5467 0002993 271.6174  88.4642 14.98333033 61798,6950.184,96.107,574.129,569.968,0.0
55304.0,STARLINK-5318,PAYLOAD,2024-02-27 02:50:05,14.98317185,0.0003227,69.999,94.0314,274.9548,85.1243,5.4012e-05,5.51e-06,0.0,0 STARLINK-5318,1 55304U 23010AM  24058.11811950  .00000551  00000-0  54012-4 0  9995,2 55304  69.9990  94.0314 0003227 274.9548  85.1243 14.98317185 61888,6950.233,96.108,574.34,569.855,0.0
